NORAD_CAT_ID,OBJECT_NAME,OBJECT_TYPE,EPOCH,MEAN_MOTION,ECCENTRICITY,INCLINATION,RA_OF_ASC_NODE,ARG_OF_PERICENTER,MEAN_ANOMALY,BSTAR,MEAN_MOTION_DOT,MEAN_MOTION_DDOT,TLE_LINE0,TLE_LINE1,TLE_LINE2,SEMIMAJOR_AXIS,PERIOD,APOGEE,PERIGEE,DECAYED
53405.0,STARLINK-4510,PAYLOAD,2023-12-31 12:58:31,15.08834294,0.0001359,53.2166,111.6391,94.0189,266.0959,2.5319e-05,1.15e-06,0.0,0 STARLINK-4510,1 53405U 22097T   23365.54064675  .00000115  00000-0  25319-4 0  9994,2 53405  53.2166 111.6391 0001359  94.0189 266.0959 15.08834294 77873,6917.898,95.438,540.703,538.823,0.0
53405.0,STARLINK-4510,PAYLOAD,2024-01-01 11:13:55,15.08842906,0.0001509,53.2175,107.4769,100.7813,259.3349,5.6724e-05,6.15e-06,0.0,0 STARLINK-4510,1 53405U 22097T   24001.46800178  .00000615  00000-0  56724-4 0  9998,2 53405  53.2175 107.4769 0001509 100.7813 259.3349 15.08842906 77520,6917.872,95.437,540.78,538.693,0.0
53405.0,STARLINK-4510,PAYLOAD,2024-01-01 14:24:41,15.08847719,0.0001416,53.217,106.882,82.8632,277.2521,8.9953e-05,1.144e-05,0.0,0 STARLINK-4510,1 53405U 22097T   24001.60047812  .00001144  00000-0  89953-4 0  9990,2 53405  53.2170 106.8820 0001416  82.8632 277.2521 15.08847719 78037,6917.857,95.437,540.701,538.742,0.0
53405.0,STARLINK-4510,PAYLOAD,2024-01-01 17:35:27,15.08851729,0.0001419,53.2171,106.287,85.6006,274.5148,0.00011961,1.617e-05,0.0,0 STARLINK-4510,1 53405U 22097T   24001.73295394  .00001617  00000-0  11961-3 0  9992,2 53405  53.2171 106.2870 0001419  85.6006 274.5148 15.08851729 77564,6917.845,95.437,540.691,538.728,0.0
53405.0,STARLINK-4510,PAYLOAD,2024-01-02 11:04:42,15.08837245,0.0001656,53.2173,103.0165,74.4088,285.7087,6.6728e-05,7.74e-06,0.0,0 STARLINK-4510,1 53405U 22097T   24002.46160638  .00000774  00000-0  66728-4 0  9990,2 53405  53.2173 103.0165 0001656  74.4088 285.7087 15.08837245 77672,6917.889,95.438,540.899,538.608,0.0
53405.0,STARLINK-4510,PAYLOAD,2024-01-02 14:15:28,15.08841247,0.0001542,53.2177,102.4218,84.4818,275.635,0.00010209,1.337e-05,0.0,0 STARLINK-4510,1 53405U 22097T   24002.59408261  .00001337  00000-0  10209-3 0  9999,2 53405  53.2177 102.4218 0001542  84.4818 275.6350 15.08841247 78189,6917.877,95.437,540.808,538.675,0.0
53405.0,STARLINK-4510,PAYLOAD,2024-01-02 15:50:51,15.08846058,0.0001442,53.2168,102.1239,78.9094,281.2061,0.00013905,1.926e-05,0.0,0 STARLINK-4510,1 53405U 22097T   24002.66031876  .00001926  00000-0  13905-3 0  9991,2 53405  53.2168 102.1239 0001442  78.9094 281.2061 15.08846058 77706,6917.862,95.437,540.724,538.729,0.0
53405.0,STARLINK-4510,PAYLOAD,2024-01-03 10:55:29,15.08842353,0.0001358,53.2177,98.5531,89.5328,270.582,-5.684e-05,-1.192e-05,0.0,0 STARLINK-4510,1 53405U 22097T   24003.45520614 -.00001192  00000-0 -56840-4 0  9995,2 53405  53.2177  98.5531 0001358  89.5328 270.5820 15.08842353 77824,6917.873,95.437,540.678,538.799,0.0
53405.0,STARLINK-4510,PAYLOAD,2024-01-03 12:30:52,15.08843916,0.0001366,53.2175,98.2556,94.9994,265.1154,-4.3584e-05,-9.82e-06,0.0,0 STARLINK-4510,1 53405U 22097T   24003.52144440 -.00000982  00000-0 -43584-4 0  9999,2 53405  53.2175  98.2556 0001366  94.9994 265.1154 15.08843916 78326,6917.868,95.437,540.678,538.788,0.0
53405.0,STARLINK-4510,PAYLOAD,2024-01-04 10:46:16,15.08842681,0.000153,53.2181,94.0918,120.0614,240.053,-1.6034e-05,-5.43e-06,0.0,0 STARLINK-4510,1 53405U 22097T   24004.44880531 -.00000543  00000-0 -16034-4 0  9992,2 53405  53.2181  94.0918 0001530 120.0614 240.0530 15.08842681 78465,6917.872,95.437,540.796,538.679,0.0
53405.0,STARLINK-4510,PAYLOAD,2024-01-04 15:32:25,15.08846247,0.0001374,53.2173,93.201,89.192,270.923,3.2496e-05,2.29e-06,0.0,0 STARLINK-4510,1 53405U 22097T   24004.64752275  .00000229  00000-0  32496-4 0  9996,2 53405  53.2173  93.2010 0001374  89.1920 270.9230 15.08846247 78002,6917.861,95.437,540.677,538.776,0.0
53405.0,STARLINK-4510,PAYLOAD,2024-01-05 12:12:27,15.08838501,0.0001565,53.2172,89.3333,96.8776,263.2394,0.00015474,2.175e-05,0.0,0 STARLINK-4510,1 53405U 22097T   24005.50864586  .00002175  00000-0  15474-3 0  9999,2 53405  53.2172  89.3333 0001565  96.8776 263.2394 15.08838501 78135,6917.885,95.438,540.833,538.667,0.0
53405.0,STARLINK-4510,PAYLOAD,2024-01-06 12:03:14,15.08843857,0.0001477,53.2172,84.8742,100.9816,259.1342,7.5683e-05,9.17e-06,0.0,0 STARLINK-4510,1 53405U 22097T   24006.50224552  .00000917  00000-0  75683-4 0  9994,2 53405  53.2172  84.8742 0001477 100.9816 259.1342 15.08843857 78770,6917.869,95.437,540.755,538.712,0.0
53405.0,STARLINK-4510,PAYLOAD,2024-01-07 03:57:06,15.08835767,0.0001681,53.2172,81.9033,79.0338,281.0843,5.3234e-05,5.59e-06,0.0,0 STARLINK-4510,1 53405U 22097T   24007.16465356  .00000559  00000-0  53234-4 0  9996,2 53405  53.2172  81.9033 0001681  79.0338 281.0843 15.08835767 78381,6917.893,95.438,540.921,538.595,0.0
53405.0,STARLINK-4510,PAYLOAD,2024-01-07 10:18:38,15.08839321,0.0001485,53.2169,80.7129,104.9115,255.2042,2.6614e-05,1.36e-06,0.0,0 STARLINK-4510,1 53405U 22097T   24007.42961119  .00000136  00000-0  26614-4 0  9996,2 53405  53.2169  80.7129 0001485 104.9115 255.2042 15.08839321 78916,6917.882,95.438,540.775,538.72,0.0
53405.0,STARLINK-4510,PAYLOAD,2024-01-08 11:44:48,15.08843291,0.0001316,53.2167,75.9561,90.1368,269.9775,5.29e-05,5.54e-06,0.0,0 STARLINK-4510,1 53405U 22097T   24008.48945077  .00000554  00000-0  52900-4 0  9999,2 53405  53.2167  75.9561 0001316  90.1368 269.9775 15.08843291 78588,6917.87,95.437,540.646,538.825,0.0
53405.0,STARLINK-4510,PAYLOAD,2024-01-09 13:10:58,15.08849595,0.0001483,53.2176,71.1985,92.5203,267.5959,0.00017482,2.496e-05,0.0,0 STARLINK-4510,1 53405U 22097T   24009.54928590  .00002496  00000-0  17482-3 0  9990,2 53405  53.2176  71.1985 0001483  92.5203 267.5959 15.08849595 78744,6917.851,95.437,540.742,538.69,0.0
53405.0,STARLINK-4510,PAYLOAD,2024-01-10 11:26:23,15.08842952,0.0001828,53.218,67.0353,66.9275,293.191,7.9537e-05,9.78e-06,0.0,0 STARLINK-4510,1 53405U 22097T   24010.47665535  .00000978  00000-0  79537-4 0  9994,2 53405  53.2180  67.0353 0001828  66.9275 293.1910 15.08842952 78886,6917.871,95.437,541.001,538.472,0.0
53405.0,STARLINK-4510,PAYLOAD,2024-01-11 12:52:32,15.0885916,0.0001596,53.2177,62.2747,87.9171,272.2004,0.00024594,3.63e-05,0.0,0 STARLINK-4510,1 53405U 22097T   24011.53648290  .00003630  00000-0  24594-3 0  9991,2 53405  53.2177  62.2747 0001596  87.9171 272.2004 15.08859160 79530,6917.822,95.436,540.791,538.583,0.0
53405.0,STARLINK-4510,PAYLOAD,2024-01-12 09:32:33,15.08841225,0.0001712,53.2171,58.4065,91.2763,268.8425,2.8594e-05,1.67e-06,0.0,0 STARLINK-4510,1 53405U 22097T   24012.39761304  .00000167  00000-0  28594-4 0  9995,2 53405  53.2171  58.4065 0001712  91.2763 268.8425 15.08841225 79170,6917.877,95.437,540.926,538.557,0.0
53405.0,STARLINK-4510,PAYLOAD,2024-01-12 12:43:19,15.08842571,0.0001692,53.2174,57.8126,88.4436,271.675,3.815e-05,3.19e-06,0.0,0 STARLINK-4510,1 53405U 22097T   24012.53009241  .00000319  00000-0  38150-4 0  9994,2 53405  53.2174  57.8126 0001692  88.4436 271.6750 15.08842571 79680,6917.873,95.437,540.908,538.567,0.0
53405.0,STARLINK-4510,PAYLOAD,2024-01-13 09:23:20,15.08841197,0.0001729,53.2172,53.945,100.9587,259.16,-6.5524e-05,-1.331e-05,0.0,0 STARLINK-4510,1 53405U 22097T   24013.39121452 -.00001331  00000-0 -65524-4 0  9990,2 53405  53.2172  53.9450 0001729 100.9587 259.1600 15.08841197 79816,6917.877,95.437,540.938,538.546,0.0
53405.0,STARLINK-4510,PAYLOAD,2024-01-14 02:52:35,15.08837384,0.0001835,53.217,50.679,107.6541,252.4651,8.2024e-05,1.017e-05,0.0,0 STARLINK-4510,1 53405U 22097T   24014.11985917  .00001017  00000-0  82024-4 0  9998,2 53405  53.2170  50.6790 0001835 107.6541 252.4651 15.08837384 79430,6917.888,95.438,541.023,538.484,0.0
53405.0,STARLINK-4510,PAYLOAD,2024-01-14 07:38:45,15.08840235,0.0002039,53.2171,49.7833,119.6412,240.4783,9.8955e-05,1.287e-05,0.0,0 STARLINK-4510,1 53405U 22097T   24014.31857713  .00001287  00000-0  98955-4 0  9991,2 53405  53.2171  49.7833 0002039 119.6412 240.4783 15.08840235 79954,6917.88,95.438,541.155,538.334,0.0
53405.0,STARLINK-4510,PAYLOAD,2024-01-15 12:15:41,15.08853054,0.0001861,53.2176,44.4338,105.4257,254.6941,0.00026573,3.945e-05,0.0,0 STARLINK-4510,1 53405U 22097T   24015.51089211  .00003945  00000-0  26573-3 0  9993,2 53405  53.2176  44.4338 0001861 105.4257 254.6941 15.08853054 79645,6917.84,95.437,540.993,538.418,0.0
53405.0,STARLINK-4510,PAYLOAD,2024-01-16 00:58:46,15.08841532,0.0002814,53.2169,42.0551,88.7001,271.4313,8.6498e-05,1.088e-05,0.0,0 STARLINK-4510,1 53405U 22097T   24016.04082156  .00001088  00000-0  86498-4 0  9992,2 53405  53.2169  42.0551 0002814  88.7001 271.4313 15.08841532 79724,6917.876,95.437,541.687,537.794,0.0
53405.0,STARLINK-4510,PAYLOAD,2024-01-16 08:55:42,15.08833743,0.0001727,53.2179,40.5689,94.5357,265.5833,-6.3135e-06,-3.89e-06,0.0,0 STARLINK-4510,1 53405U 22097T   24016.37202501 -.00000389  00000-0 -63135-5 0  9995,2 53405  53.2179  40.5689 0001727  94.5357 265.5833 15.08833743 79772,6917.9,95.438,540.959,538.57,0.0
53405.0,STARLINK-4510,PAYLOAD,2024-01-17 08:46:29,15.08849518,0.0001558,53.2165,36.1072,104.4817,255.6348,0.00043266,6.606e-05,0.0,0 STARLINK-4510,1 53405U 22097T   24017.36562052  .00006606  00000-0  43266-3 0  9992,2 53405  53.2165  36.1072 0001558 104.4817 255.6348 15.08849518 79923,6917.851,95.437,540.794,538.638,0.0
53405.0,STARLINK-4510,PAYLOAD,2024-01-17 23:04:58,15.08841055,0.0001584,53.2173,33.4311,98.5068,261.6104,0.00020647,3e-05,0.0,0 STARLINK-4510,1 53405U 22097T   24017.96178545  .00003000  00000-0  20647-3 0  9991,2 53405  53.2173  33.4311 0001584  98.5068 261.6104 15.08841055 80015,6917.877,95.437,540.838,538.646,0.0
53405.0,STARLINK-4510,PAYLOAD,2024-01-18 10:12:40,15.08844648,0.0001607,53.2166,31.3476,95.5638,264.5538,0.00026281,3.898e-05,0.0,0 STARLINK-4510,1 53405U 22097T   24018.42546527  .00003898  00000-0  26281-3 0  9997,2 53405  53.2166  31.3476 0001607  95.5638 264.5538 15.08844648 80577,6917.866,95.437,540.843,538.619,0.0
